[{"OBJECT_NAME":"ONEWEB-0012","OBJECT_ID":"2019-010A","EPOCH":"2025-11-19T06:33:56.661408","MEAN_MOTION":13.16593249,"ECCENTRICITY":0.00017428,"INCLINATION":87.901,"RA_OF_ASC_NODE":270.5958,"ARG_OF_PERICENTER":92.3927,"MEAN_ANOMALY":267.7403,"EPHEMERIS_TYPE":0,"CLASSIFICATION_TYPE":"U","NORAD_CAT_ID":44057,"ELEMENT_SET_NO":999,"REV_AT_EPOCH":32394,"BSTAR":-0.00012473423,"MEAN_MOTION_DOT":-3.5e-7,"MEAN_MOTION_DDOT":0},{"OBJECT_NAME":"ONEWEB-0010","OBJECT_ID":"2019-010B","EPOCH":"2025-11-19T05:21:00.028800","MEAN_MOTION":13.16594311,"ECCENTRICITY":0.00022734,"INCLINATION":87.9015,"RA_OF_ASC_NODE":270.594,"ARG_OF_PERICENTER":78.9738,"MEAN_ANOMALY":281.1649,"EPHEMERIS_TYPE":0,"CLASSIFICATION_TYPE":"U","NORAD_CAT_ID":44058,"ELEMENT_SET_NO":999,"REV_AT_EPOCH":32398,"BSTAR":0.00026974378,"MEAN_MOTION_DOT":1.16e-6,"MEAN_MOTION_DDOT":0},{"OBJECT_NAME":"ONEWEB-0008","OBJECT_ID":"2019-010C","EPOCH":"2025-11-19T05:57:28.908864","MEAN_MOTION":13.16594112,"ECCENTRICITY":0.00017153,"INCLINATION":87.9017,"RA_OF_ASC_NODE":270.5856,"ARG_OF_PERICENTER":74.9122,"MEAN_ANOMALY":285.2198,"EPHEMERIS_TYPE":0,"CLASSIFICATION_TYPE":"U","NORAD_CAT_ID":44059,"ELEMENT_SET_NO":999,"REV_AT_EPOCH":32410,"BSTAR":-2.8135177e-5,"MEAN_MOTION_DOT":2.0e-8,"MEAN_MOTION_DDOT":0},{"OBJECT_NAME":"ONEWEB-0007","OBJECT_ID":"2019-010D","EPOCH":"2025-11-19T04:37:22.232352","MEAN_MOTION":13.15545807,"ECCENTRICITY":0.00021413,"INCLINATION":87.8961,"RA_OF_ASC_NODE":301.1317,"ARG_OF_PERICENTER":93.0595,"MEAN_ANOMALY":267.078,"EPHEMERIS_TYPE":0,"CLASSIFICATION_TYPE":"U","NORAD_CAT_ID":44060,"ELEMENT_SET_NO":999,"REV_AT_EPOCH":32376,"BSTAR":-0.00027839972,"MEAN_MOTION_DOT":-9.2e-7,"MEAN_MOTION_DDOT":0},{"OBJECT_NAME":"ONEWEB-0006","OBJECT_ID":"2019-010E","EPOCH":"2025-11-19T04:43:06.640032","MEAN_MOTION":13.15550642,"ECCENTRICITY":0.00021203,"INCLINATION":87.8969,"RA_OF_ASC_NODE":301.0754,"ARG_OF_PERICENTER":87.5085,"MEAN_ANOMALY":272.6288,"EPHEMERIS_TYPE":0,"CLASSIFICATION_TYPE":"U","NORAD_CAT_ID":44061,"ELEMENT_SET_NO":999,"REV_AT_EPOCH":32381,"BSTAR":-0.00014031102,"MEAN_MOTION_DOT":-4.0e-7,"MEAN_MOTION_DDOT":0},{"OBJECT_NAME":"ONEWEB-0011","OBJECT_ID":"2019-010F","EPOCH":"2025-11-19T05:46:59.534112","MEAN_MOTION":13.15546755,"ECCENTRICITY":0.00019103,"INCLINATION":87.8962,"RA_OF_ASC_NODE":301.0767,"ARG_OF_PERICENTER":80.3568,"MEAN_ANOMALY":279.7779,"EPHEMERIS_TYPE":0,"CLASSIFICATION_TYPE":"U","NORAD_CAT_ID":44062,"ELEMENT_SET_NO":999,"REV_AT_EPOCH":32381,"BSTAR":0.00039305506,"MEAN_MOTION_DOT":1.61e-6,"MEAN_MOTION_DDOT":0},{"OBJECT_NAME":"ONEWEB-0013","OBJECT_ID":"2020-008A","EPOCH":"2025-11-19T06:25:57.397152","MEAN_MOTION":13.09442953,"ECCENTRICITY":0.0001549,"INCLINATION":87.8498,"RA_OF_ASC_NODE":95.2183,"ARG_OF_PERICENTER":136.3241,"MEAN_ANOMALY":223.8009,"EPHEMERIS_TYPE":0,"CLASSIFICATION_TYPE":"U","NORAD_CAT_ID":45131,"ELEMENT_SET_NO":999,"REV_AT_EPOCH":27859,"BSTAR":0.0005206285,"MEAN_MOTION_DOT":1.92e-6,"MEAN_MOTION_DDOT":0},{"OBJECT_NAME":"ONEWEB-0017","OBJECT_ID":"2020-008B","EPOCH":"2025-11-19T05:53:46.030560","MEAN_MOTION":13.10373022,"ECCENTRICITY":0.00017488,"INCLINATION":87.8801,"RA_OF_ASC_NODE":78.1247,"ARG_OF_PERICENTER":96.2641,"MEAN_ANOMALY":263.8685,"EPHEMERIS_TYPE":0,"CLASSIFICATION_TYPE":"U","NORAD_CAT_ID":45132,"ELEMENT_SET_NO":999,"REV_AT_EPOCH":28045,"BSTAR":0.0015295162,"MEAN_MOTION_DOT":5.47e-6,"MEAN_MOTION_DDOT":0},{"OBJECT_NAME":"ONEWEB-0020","OBJECT_ID":"2020-008C","EPOCH":"2025-11-19T01:30:48.659616","MEAN_MOTION":13.103779,"ECCENTRICITY":0.0001403,"INCLINATION":87.8813,"RA_OF_ASC_NODE":78.1466,"ARG_OF_PERICENTER":95.6864,"MEAN_ANOMALY":264.4424,"EPHEMERIS_TYPE":0,"CLASSIFICATION_TYPE":"U","NORAD_CAT_ID":45133,"ELEMENT_SET_NO":999,"REV_AT_EPOCH":28082,"BSTAR":-0.00026117795,"MEAN_MOTION_DOT":-7.9e-7,"MEAN_MOTION_DDOT":0},{"OBJECT_NAME":"ONEWEB-0021","OBJECT_ID":"2020-008D","EPOCH":"2025-11-19T05:32:15.709632","MEAN_MOTION":13.10376568,"ECCENTRICITY":0.00016574,"INCLINATION":87.8801,"RA_OF_ASC_NODE":78.1442,"ARG_OF_PERICENTER":103.6073,"MEAN_ANOMALY":256.5239,"EPHEMERIS_TYPE":0,"CLASSIFICATION_TYPE":"U","NORAD_CAT_ID":45134,"ELEMENT_SET_NO":999,"REV_AT_EPOCH":28115,"BSTAR":0.0017135509,"MEAN_MOTION_DOT":6.11e-6,"MEAN_MOTION_DDOT":0},{"OBJECT_NAME":"ONEWEB-0023","OBJECT_ID":"2020-008F","EPOCH":"2025-11-19T02:07:53.508000","MEAN_MOTION":13.10373145,"ECCENTRICITY":0.00013331,"INCLINATION":87.8794,"RA_OF_ASC_NODE":78.1543,"ARG_OF_PERICENTER":104.3134,"MEAN_ANOMALY":255.8141,"EPHEMERIS_TYPE":0,"CLASSIFICATION_TYPE":"U","NORAD_CAT_ID":45136,"ELEMENT_SET_NO":999,"REV_AT_EPOCH":28056,"BSTAR":0.0016725597,"MEAN_MOTION_DOT":5.97e-6,"MEAN_MOTION_DDOT":0},{"OBJECT_NAME":"ONEWEB-0024","OBJECT_ID":"2020-008G","EPOCH":"2025-11-19T01:28:25.718592","MEAN_MOTION":13.10377082,"ECCENTRICITY":0.00016195,"INCLINATION":87.8821,"RA_OF_ASC_NODE":78.1244,"ARG_OF_PERICENTER":100.448,"MEAN_ANOMALY":259.6829,"EPHEMERIS_TYPE":0,"CLASSIFICATION_TYPE":"U","NORAD_CAT_ID":45137,"ELEMENT_SET_NO":999,"REV_AT_EPOCH":28072,"BSTAR":-0.00059505972,"MEAN_MOTION_DOT":-1.95e-6,"MEAN_MOTION_DDOT":0},{"OBJECT_NAME":"ONEWEB-0025","OBJECT_ID":"2020-008H","EPOCH":"2025-11-19T01:53:32.936352","MEAN_MOTION":13.1037421,"ECCENTRICITY":0.00015675,"INCLINATION":87.8813,"RA_OF_ASC_NODE":78.1272,"ARG_OF_PERICENTER":114.101,"MEAN_ANOMALY":246.0281,"EPHEMERIS_TYPE":0,"CLASSIFICATION_TYPE":"U","NORAD_CAT_ID":45138,"ELEMENT_SET_NO":999,"REV_AT_EPOCH":28105,"BSTAR":0.0015874252,"MEAN_MOTION_DOT":5.67e-6,"MEAN_MOTION_DDOT":0},{"OBJECT_NAME":"ONEWEB-0026","OBJECT_ID":"2020-008J","EPOCH":"2025-11-19T06:23:15.649440","MEAN_MOTION":13.11416719,"ECCENTRICITY":0.00017036,"INCLINATION":87.8872,"RA_OF_ASC_NODE":62.8668,"ARG_OF_PERICENTER":96.37,"MEAN_ANOMALY":263.7622,"EPHEMERIS_TYPE":0,"CLASSIFICATION_TYPE":"U","NORAD_CAT_ID":45139,"ELEMENT_SET_NO":999,"REV_AT_EPOCH":28359,"BSTAR":0.0015205564,"MEAN_MOTION_DOT":5.52e-6,"MEAN_MOTION_DDOT":0},{"OBJECT_NAME":"ONEWEB-0028","OBJECT_ID":"2020-008K","EPOCH":"2025-11-19T05:20:58.674048","MEAN_MOTION":13.11413967,"ECCENTRICITY":0.00017097,"INCLINATION":87.886,"RA_OF_ASC_NODE":62.8916,"ARG_OF_PERICENTER":126.0911,"MEAN_ANOMALY":234.0376,"EPHEMERIS_TYPE":0,"CLASSIFICATION_TYPE":"U","NORAD_CAT_ID":45140,"ELEMENT_SET_NO":999,"REV_AT_EPOCH":28110,"BSTAR":-0.0010899677,"MEAN_MOTION_DOT":-3.74e-6,"MEAN_MOTION_DDOT":0},{"OBJECT_NAME":"ONEWEB-0032","OBJECT_ID":"2020-008L","EPOCH":"2025-11-19T05:56:09.126240","MEAN_MOTION":13.1036909,"ECCENTRICITY":0.00015288,"INCLINATION":87.88,"RA_OF_ASC_NODE":78.124,"ARG_OF_PERICENTER":108.7407,"MEAN_ANOMALY":251.3886,"EPHEMERIS_TYPE":0,"CLASSIFICATION_TYPE":"U","NORAD_CAT_ID":45141,"ELEMENT_SET_NO":999,"REV_AT_EPOCH":28080,"BSTAR":0.0014064508,"MEAN_MOTION_DOT":5.04e-6,"MEAN_MOTION_DDOT":0},{"OBJECT_NAME":"ONEWEB-0033","OBJECT_ID":"2020-008M","EPOCH":"2025-11-19T07:10:15.191616","MEAN_MOTION":13.1037793,"ECCENTRICITY":0.00018995,"INCLINATION":87.8807,"RA_OF_ASC_NODE":78.126,"ARG_OF_PERICENTER":85.5585,"MEAN_ANOMALY":274.576,"EPHEMERIS_TYPE":0,"CLASSIFICATION_TYPE":"U","NORAD_CAT_ID":45142,"ELEMENT_SET_NO":999,"REV_AT_EPOCH":28072,"BSTAR":0.00081806957,"MEAN_MOTION_DOT":2.98e-6,"MEAN_MOTION_DDOT":0}]
