ONEWEB-0012             
1 44057U 19010A   25323.27357247 -.00000035  00000+0 -12473-3 0  9992
2 44057  87.9010 270.5958 0001742  92.3927 267.7403 13.16593249323942
ONEWEB-0010             
1 44058U 19010B   25323.22291700  .00000116  00000+0  26974-3 0  9998
2 44058  87.9015 270.5940 0002273  78.9738 281.1649 13.16594311323986
ONEWEB-0008             
1 44059U 19010C   25323.24825126  .00000002  00000+0 -28135-4 0  9993
2 44059  87.9017 270.5856 0001715  74.9122 285.2198 13.16594112324106
ONEWEB-0007             
1 44060U 19010D   25323.19261843 -.00000092  00000+0 -27840-3 0  9990
2 44060  87.8961 301.1317 0002141  93.0595 267.0780 13.15545807323760
ONEWEB-0006             
1 44061U 19010E   25323.19660463 -.00000040  00000+0 -14031-3 0  9993
2 44061  87.8969 301.0754 0002120  87.5085 272.6288 13.15550642323816
ONEWEB-0011             
1 44062U 19010F   25323.24096683  .00000161  00000+0  39306-3 0  9991
2 44062  87.8962 301.0767 0001910  80.3568 279.7779 13.15546755323810
ONEWEB-0013             
1 45131U 20008A   25323.26802543  .00000192  00000+0  52063-3 0  9999
2 45131  87.8498  95.2183 0001549 136.3241 223.8009 13.09442953278592
ONEWEB-0017             
1 45132U 20008B   25323.24567165  .00000547  00000+0  15295-2 0  9995
2 45132  87.8801  78.1247 0001748  96.2641 263.8685 13.10373022280455
ONEWEB-0020             
1 45133U 20008C   25323.06306319 -.00000079  00000+0 -26118-3 0  9997
2 45133  87.8813  78.1466 0001403  95.6864 264.4424 13.10377900280828
ONEWEB-0021             
1 45134U 20008D   25323.23073738  .00000611  00000+0  17136-2 0  9992
2 45134  87.8801  78.1442 0001657 103.6073 256.5239 13.10376568281155
ONEWEB-0023             
1 45136U 20008F   25323.08881375  .00000597  00000+0  16726-2 0  9998
2 45136  87.8794  78.1543 0001333 104.3134 255.8141 13.10373145280563
ONEWEB-0024             
1 45137U 20008G   25323.06140878 -.00000195  00000+0 -59506-3 0  9993
2 45137  87.8821  78.1244 0001619 100.4480 259.6829 13.10377082280728
ONEWEB-0025             
1 45138U 20008H   25323.07885343  .00000567  00000+0  15874-2 0  9998
2 45138  87.8813  78.1272 0001567 114.1010 246.0281 13.10374210281053
ONEWEB-0026             
1 45139U 20008J   25323.26615335  .00000552  00000+0  15206-2 0  9995
2 45139  87.8872  62.8668 0001703  96.3700 263.7622 13.11416719283595
ONEWEB-0028             
1 45140U 20008K   25323.22290132 -.00000374  00000+0 -10900-2 0  9997
2 45140  87.8860  62.8916 0001709 126.0911 234.0376 13.11413967281105
ONEWEB-0032             
1 45141U 20008L   25323.24732785  .00000504  00000+0  14065-2 0  9994
2 45141  87.8800  78.1240 0001528 108.7407 251.3886 13.10369090280806
ONEWEB-0033             
1 45142U 20008M   25323.29878694  .00000298  00000+0  81807-3 0  9999
2 45142  87.8807  78.1260 0001899  85.5585 274.5760 13.10377930280727
